OBJECT_NAME,OBJECT_ID,EPOCH,MEAN_MOTION,ECCENTRICITY,INCLINATION,RA_OF_ASC_NODE,ARG_OF_PERICENTER,MEAN_ANOMALY,EPHEMERIS_TYPE,CLASSIFICATION_TYPE,NORAD_CAT_ID,ELEMENT_SET_NO,REV_AT_EPOCH,BSTAR,MEAN_MOTION_DOT,MEAN_MOTION_DDOT
HAWK-5A,2022-057AB,2026-07-18T16:51:28.166976,15.52399946,.00030315,97.6636,0.6166,321.3858,38.7177,0,U,52757,999,23123,.16599842E-3,.10026E-3,0
HAWK-6B,2023-011A,2026-07-18T23:38:01.454784,15.23174312,.0004544,40.4978,166.5679,259.8721,100.1576,0,U,55324,999,19269,.11084188E-3,.248E-4,0
HAWK-6C,2023-011C,2026-07-18T06:18:33.108480,15.23170261,.00049743,40.4967,167.6154,250.3835,109.6437,0,U,55326,999,19259,.10019816E-3,.2222E-4,0
HAWK-6A,2023-011D,2026-07-18T04:44:11.491872,15.23169943,.00046206,40.4977,169.6247,247.0466,112.9856,0,U,55327,999,19258,.10414425E-3,.2317E-4,0
HAWK-7A,2023-054P,2026-07-18T16:26:40.856640,15.27653187,.00011065,97.2654,86.2214,310.3898,49.7245,0,U,56191,999,18183,.10511569E-3,.2769E-4,0
HAWK-7B,2023-054R,2026-07-18T16:26:35.207808,15.27651681,.00009515,97.2680,84.4963,8.4810,351.6446,0,U,56193,999,18183,.10608844E-3,.2795E-4,0
HAWK-7C,2023-054Y,2026-07-18T16:26:24.069120,15.27654182,.00005711,97.2657,85.2553,335.2444,24.8768,0,U,56200,999,18183,.10486314E-3,.2762E-4,0
